ONEWEB-0238             
1 48784U 21045T   26040.23327775 -.00000091  00000+0 -27705-3 0  9996
2 48784  87.8985 284.7171 0001906  88.0280 272.1068 13.15548954227552
ONEWEB-0240             
1 48785U 21045U   26040.17846422 -.00000119  00000+0 -35014-3 0  9998
2 48785  87.8986 284.7275 0001449  94.2175 265.9121 13.15547172227576
ONEWEB-0246             
1 48786U 21045V   26040.17293411  .00000027  00000+0  38750-4 0  9990
2 48786  87.8986 284.7380 0001420  77.9112 282.2177 13.15549221227448
ONEWEB-0210             
1 48787U 21045W   26040.22362444 -.00000791  00000+0 -21352-2 0  9998
2 48787  87.8989 284.7250 0000774  61.4990 298.6218 13.15551672227496
ONEWEB-0214             
1 48788U 21045X   26040.15628937 -.00000029  00000+0 -11041-3 0  9992
2 48788  87.8994 284.7339 0001211  70.8540 289.2721 13.15549355227459
ONEWEB-0221             
1 48789U 21045Y   26040.16342499 -.00000067  00000+0 -21179-3 0  9995
2 48789  87.8982 284.7442 0001329  87.9296 272.1987 13.15548993227541
ONEWEB-0213             
1 48790U 21045Z   26040.22838305 -.00000095  00000+0 -28621-3 0  9990
2 48790  87.8986 284.7343 0001234  78.9614 281.1655 13.15550580227611
ONEWEB-0212             
1 48791U 21045AA  26040.20541196  .00000135  00000+0  32488-3 0  9997
2 48791  87.8983 284.7335 0001555  83.4814 276.6493 13.15549065227603
ONEWEB-0227             
1 48792U 21045AB  26040.20462648  .00000225  00000+0  56386-3 0  9995
2 48792  87.8978 284.7383 0001464  88.5109 271.6189 13.15549134227551
ONEWEB-0226             
1 48793U 21045AC  26040.19828147  .00000201  00000+0  50111-3 0  9998
2 48793  87.8975 284.7495 0001184  83.9019 276.2246 13.15549658227524
ONEWEB-0224             
1 48794U 21045AD  26040.23789184 -.00000073  00000+0 -22877-3 0  9998
2 48794  87.8979 284.7768 0001835 110.6017 249.5310 13.15549838227458
ONEWEB-0233             
1 48795U 21045AE  26040.16645895 -.00000021  00000+0 -89725-4 0  9990
2 48795  87.8974 284.8011 0001333  92.8282 267.3001 13.15548815227464
ONEWEB-0190             
1 48796U 21045AF  26040.22996752 -.00000028  00000+0 -10802-3 0  9995
2 48796  87.8978 284.7487 0000834  96.7146 263.4079 13.15551025227540
ONEWEB-0236             
1 48797U 21045AG  26040.17134889 -.00000036  00000+0 -13079-3 0  9993
2 48797  87.8974 284.7722 0001679  81.0066 279.1255 13.15549177227427
ONEWEB-0248             
1 48798U 21045AH  26040.18402492  .00000024  00000+0  28539-4 0  9996
2 48798  87.8984 284.7400 0001357 103.6483 256.4798 13.15549388227580
ONEWEB-0225             
1 48799U 21045AJ  26040.20621113  .00000193  00000+0  47813-3 0  9995
2 48799  87.8977 284.7541 0000951  96.1298 263.9941 13.15549811227593
