[{"OBJECT_NAME":"ONEWEB-0238","OBJECT_ID":"2021-045T","EPOCH":"2026-02-09T05:35:55.197600","MEAN_MOTION":13.15548954,"ECCENTRICITY":0.00019069,"INCLINATION":87.8985,"RA_OF_ASC_NODE":284.7171,"ARG_OF_PERICENTER":88.028,"MEAN_ANOMALY":272.1068,"EPHEMERIS_TYPE":0,"CLASSIFICATION_TYPE":"U","NORAD_CAT_ID":48784,"ELEMENT_SET_NO":999,"REV_AT_EPOCH":22755,"BSTAR":-0.00027704984,"MEAN_MOTION_DOT":-9.1e-7,"MEAN_MOTION_DDOT":0},{"OBJECT_NAME":"ONEWEB-0240","OBJECT_ID":"2021-045U","EPOCH":"2026-02-09T04:16:59.308608","MEAN_MOTION":13.15547172,"ECCENTRICITY":0.00014496,"INCLINATION":87.8986,"RA_OF_ASC_NODE":284.7275,"ARG_OF_PERICENTER":94.2175,"MEAN_ANOMALY":265.9121,"EPHEMERIS_TYPE":0,"CLASSIFICATION_TYPE":"U","NORAD_CAT_ID":48785,"ELEMENT_SET_NO":999,"REV_AT_EPOCH":22757,"BSTAR":-0.00035014445,"MEAN_MOTION_DOT":-1.19e-6,"MEAN_MOTION_DDOT":0},{"OBJECT_NAME":"ONEWEB-0246","OBJECT_ID":"2021-045V","EPOCH":"2026-02-09T04:09:01.507104","MEAN_MOTION":13.15549221,"ECCENTRICITY":0.00014206,"INCLINATION":87.8986,"RA_OF_ASC_NODE":284.738,"ARG_OF_PERICENTER":77.9112,"MEAN_ANOMALY":282.2177,"EPHEMERIS_TYPE":0,"CLASSIFICATION_TYPE":"U","NORAD_CAT_ID":48786,"ELEMENT_SET_NO":999,"REV_AT_EPOCH":22744,"BSTAR":3.8749874e-5,"MEAN_MOTION_DOT":2.7e-7,"MEAN_MOTION_DDOT":0},{"OBJECT_NAME":"ONEWEB-0210","OBJECT_ID":"2021-045W","EPOCH":"2026-02-09T05:22:01.151616","MEAN_MOTION":13.15551672,"ECCENTRICITY":7.741e-5,"INCLINATION":87.8989,"RA_OF_ASC_NODE":284.725,"ARG_OF_PERICENTER":61.499,"MEAN_ANOMALY":298.6218,"EPHEMERIS_TYPE":0,"CLASSIFICATION_TYPE":"U","NORAD_CAT_ID":48787,"ELEMENT_SET_NO":999,"REV_AT_EPOCH":22749,"BSTAR":-0.0021352386,"MEAN_MOTION_DOT":-7.91e-6,"MEAN_MOTION_DDOT":0},{"OBJECT_NAME":"ONEWEB-0214","OBJECT_ID":"2021-045X","EPOCH":"2026-02-09T03:45:03.401568","MEAN_MOTION":13.15549355,"ECCENTRICITY":0.00012118,"INCLINATION":87.8994,"RA_OF_ASC_NODE":284.7339,"ARG_OF_PERICENTER":70.854,"MEAN_ANOMALY":289.2721,"EPHEMERIS_TYPE":0,"CLASSIFICATION_TYPE":"U","NORAD_CAT_ID":48788,"ELEMENT_SET_NO":999,"REV_AT_EPOCH":22745,"BSTAR":-0.00011040942,"MEAN_MOTION_DOT":-2.9e-7,"MEAN_MOTION_DDOT":0},{"OBJECT_NAME":"ONEWEB-0221","OBJECT_ID":"2021-045Y","EPOCH":"2026-02-09T03:55:19.919136","MEAN_MOTION":13.15548993,"ECCENTRICITY":0.0001329,"INCLINATION":87.8982,"RA_OF_ASC_NODE":284.7442,"ARG_OF_PERICENTER":87.9296,"MEAN_ANOMALY":272.1987,"EPHEMERIS_TYPE":0,"CLASSIFICATION_TYPE":"U","NORAD_CAT_ID":48789,"ELEMENT_SET_NO":999,"REV_AT_EPOCH":22754,"BSTAR":-0.00021178581,"MEAN_MOTION_DOT":-6.7e-7,"MEAN_MOTION_DDOT":0},{"OBJECT_NAME":"ONEWEB-0213","OBJECT_ID":"2021-045Z","EPOCH":"2026-02-09T05:28:52.295520","MEAN_MOTION":13.1555058,"ECCENTRICITY":0.00012349,"INCLINATION":87.8986,"RA_OF_ASC_NODE":284.7343,"ARG_OF_PERICENTER":78.9614,"MEAN_ANOMALY":281.1655,"EPHEMERIS_TYPE":0,"CLASSIFICATION_TYPE":"U","NORAD_CAT_ID":48790,"ELEMENT_SET_NO":999,"REV_AT_EPOCH":22761,"BSTAR":-0.0002862134,"MEAN_MOTION_DOT":-9.5e-7,"MEAN_MOTION_DDOT":0},{"OBJECT_NAME":"ONEWEB-0212","OBJECT_ID":"2021-045AA","EPOCH":"2026-02-09T04:55:47.593344","MEAN_MOTION":13.15549065,"ECCENTRICITY":0.00015553,"INCLINATION":87.8983,"RA_OF_ASC_NODE":284.7335,"ARG_OF_PERICENTER":83.4814,"MEAN_ANOMALY":276.6493,"EPHEMERIS_TYPE":0,"CLASSIFICATION_TYPE":"U","NORAD_CAT_ID":48791,"ELEMENT_SET_NO":999,"REV_AT_EPOCH":22760,"BSTAR":0.00032488498,"MEAN_MOTION_DOT":1.35e-6,"MEAN_MOTION_DDOT":0},{"OBJECT_NAME":"ONEWEB-0227","OBJECT_ID":"2021-045AB","EPOCH":"2026-02-09T04:54:39.727872","MEAN_MOTION":13.15549134,"ECCENTRICITY":0.00014644,"INCLINATION":87.8978,"RA_OF_ASC_NODE":284.7383,"ARG_OF_PERICENTER":88.5109,"MEAN_ANOMALY":271.6189,"EPHEMERIS_TYPE":0,"CLASSIFICATION_TYPE":"U","NORAD_CAT_ID":48792,"ELEMENT_SET_NO":999,"REV_AT_EPOCH":22755,"BSTAR":0.00056385528,"MEAN_MOTION_DOT":2.25e-6,"MEAN_MOTION_DDOT":0},{"OBJECT_NAME":"ONEWEB-0226","OBJECT_ID":"2021-045AC","EPOCH":"2026-02-09T04:45:31.519008","MEAN_MOTION":13.15549658,"ECCENTRICITY":0.00011847,"INCLINATION":87.8975,"RA_OF_ASC_NODE":284.7495,"ARG_OF_PERICENTER":83.9019,"MEAN_ANOMALY":276.2246,"EPHEMERIS_TYPE":0,"CLASSIFICATION_TYPE":"U","NORAD_CAT_ID":48793,"ELEMENT_SET_NO":999,"REV_AT_EPOCH":22752,"BSTAR":0.00050111136,"MEAN_MOTION_DOT":2.01e-6,"MEAN_MOTION_DDOT":0},{"OBJECT_NAME":"ONEWEB-0224","OBJECT_ID":"2021-045AD","EPOCH":"2026-02-09T05:42:33.854976","MEAN_MOTION":13.15549838,"ECCENTRICITY":0.00018352,"INCLINATION":87.8979,"RA_OF_ASC_NODE":284.7768,"ARG_OF_PERICENTER":110.6017,"MEAN_ANOMALY":249.531,"EPHEMERIS_TYPE":0,"CLASSIFICATION_TYPE":"U","NORAD_CAT_ID":48794,"ELEMENT_SET_NO":999,"REV_AT_EPOCH":22745,"BSTAR":-0.00022877361,"MEAN_MOTION_DOT":-7.3e-7,"MEAN_MOTION_DDOT":0},{"OBJECT_NAME":"ONEWEB-0233","OBJECT_ID":"2021-045AE","EPOCH":"2026-02-09T03:59:42.053280","MEAN_MOTION":13.15548815,"ECCENTRICITY":0.00013338,"INCLINATION":87.8974,"RA_OF_ASC_NODE":284.8011,"ARG_OF_PERICENTER":92.8282,"MEAN_ANOMALY":267.3001,"EPHEMERIS_TYPE":0,"CLASSIFICATION_TYPE":"U","NORAD_CAT_ID":48795,"ELEMENT_SET_NO":999,"REV_AT_EPOCH":22746,"BSTAR":-8.9724963e-5,"MEAN_MOTION_DOT":-2.1e-7,"MEAN_MOTION_DDOT":0},{"OBJECT_NAME":"ONEWEB-0190","OBJECT_ID":"2021-045AF","EPOCH":"2026-02-09T05:31:09.193728","MEAN_MOTION":13.15551025,"ECCENTRICITY":8.346e-5,"INCLINATION":87.8978,"RA_OF_ASC_NODE":284.7487,"ARG_OF_PERICENTER":96.7146,"MEAN_ANOMALY":263.4079,"EPHEMERIS_TYPE":0,"CLASSIFICATION_TYPE":"U","NORAD_CAT_ID":48796,"ELEMENT_SET_NO":999,"REV_AT_EPOCH":22754,"BSTAR":-0.00010801811,"MEAN_MOTION_DOT":-2.8e-7,"MEAN_MOTION_DDOT":0},{"OBJECT_NAME":"ONEWEB-0236","OBJECT_ID":"2021-045AG","EPOCH":"2026-02-09T04:06:44.544096","MEAN_MOTION":13.15549177,"ECCENTRICITY":0.00016794,"INCLINATION":87.8974,"RA_OF_ASC_NODE":284.7722,"ARG_OF_PERICENTER":81.0066,"MEAN_ANOMALY":279.1255,"EPHEMERIS_TYPE":0,"CLASSIFICATION_TYPE":"U","NORAD_CAT_ID":48797,"ELEMENT_SET_NO":999,"REV_AT_EPOCH":22742,"BSTAR":-0.00013078922,"MEAN_MOTION_DOT":-3.6e-7,"MEAN_MOTION_DDOT":0},{"OBJECT_NAME":"ONEWEB-0248","OBJECT_ID":"2021-045AH","EPOCH":"2026-02-09T04:24:59.753088","MEAN_MOTION":13.15549388,"ECCENTRICITY":0.00013572,"INCLINATION":87.8984,"RA_OF_ASC_NODE":284.74,"ARG_OF_PERICENTER":103.6483,"MEAN_ANOMALY":256.4798,"EPHEMERIS_TYPE":0,"CLASSIFICATION_TYPE":"U","NORAD_CAT_ID":48798,"ELEMENT_SET_NO":999,"REV_AT_EPOCH":22758,"BSTAR":2.8538583e-5,"MEAN_MOTION_DOT":2.4e-7,"MEAN_MOTION_DDOT":0},{"OBJECT_NAME":"ONEWEB-0225","OBJECT_ID":"2021-045AJ","EPOCH":"2026-02-09T04:56:56.641632","MEAN_MOTION":13.15549811,"ECCENTRICITY":9.515e-5,"INCLINATION":87.8977,"RA_OF_ASC_NODE":284.7541,"ARG_OF_PERICENTER":96.1298,"MEAN_ANOMALY":263.9941,"EPHEMERIS_TYPE":0,"CLASSIFICATION_TYPE":"U","NORAD_CAT_ID":48799,"ELEMENT_SET_NO":999,"REV_AT_EPOCH":22759,"BSTAR":0.00047813185,"MEAN_MOTION_DOT":1.93e-6,"MEAN_MOTION_DDOT":0}]
